MOLNIYA 2-9             
1 07276U 74026A   24198.91143668  .00000106  00000+0  00000+0 0  9998
2 07276  64.2929 124.3136 6452352 270.6325  21.3422  2.45097599267850
MOLNIYA 2-10            
1 07376U 74056A   24198.14369755  .00000988  00000+0  00000+0 0  9992
2 07376  65.2189  13.7348 6845134 278.9267  15.0587  2.01148271365639
MOLNIYA 1-S             
1 07392U 74060A   24199.87369146 -.00000268  00000+0  00000+0 0  9992
2 07392   3.1686 270.0809 0010313 239.1702 200.5354  1.00223489127160
MOLNIYA 1-29            
1 07780U 75036A   24198.87891106  .00000154  00000+0 -17304+0 0  9991
2 07780  63.4768 136.4919 6712640 283.6962  14.5468  2.00580128360871
MOLNIYA 2-14            
1 08195U 75081A   24197.76604932 -.00000781  00000+0  00000+0 0  9999
2 08195  63.6708 109.4092 6712383 288.5916  13.1499  2.02102793358233
MOLNIYA 1-32            
1 08601U 76006A   24196.42136438 -.00000916  00000+0  00000+0 0  9992
2 08601  63.6488 205.6150 6824987 281.9615  14.3239  2.00048228 67828
MOLNIYA 1-36            
1 09880U 77021A   24197.38936492 -.00000961  00000+0  00000+0 0  9994
2 09880  63.5645 180.9657 6752856 286.8049  13.3518  2.00653378244597
MOLNIYA 3-8             
1 10455U 77105A   24199.19695048  .00000291  00000+0  00000+0 0  9992
2 10455  63.6348 251.8862 7046313 281.9752  12.9764  2.00407858342403
MOLNIYA 1-40            
1 10925U 78055A   24200.31769219 -.00000189  00000+0  00000+0 0  9995
2 10925  63.9127 302.2139 7140145 279.3294  13.0953  2.00515512337998
MOLNIYA 3-10            
1 11057U 78095A   24199.53390834 -.00000226  00000+0 -41833-2 0  9995
2 11057  63.2822 125.6697 5648799 314.8343  11.2085  4.09908300414929
MOLNIYA 3-13            
1 11896U 80063A   24198.58407929 -.00000214  00000+0 -41920-2 0  9996
2 11896  63.3763  31.2409 7328316 278.2246  11.9265  2.00575641322343
MOLNIYA 1-52            
1 13012U 81123A   24196.54297873  .00001397  00000+0  19183-1 0  9991
2 13012  61.5566 173.5290 7164613 264.7845  17.5330  2.00795145311781
MOLNIYA 1-53            
1 13070U 82015A   24199.78750306 -.00000685  00000+0 -63087-1 0  9993
2 13070  62.6576 124.7468 6946223 283.3452  13.1365  2.00387945310524
MOLNIYA 3-20            
1 13875U 83015A   24198.57756856 -.00001009  00000+0 -86775-3 0  9991
2 13875  62.0503 237.2678 7177752 266.4017  16.8555  2.00727316238965
MOLNIYA 1-63            
1 15429U 84124A   24200.08735043 -.00001376  00000+0  00000+0 0  9994
2 15429  63.6086  85.7974 7057942 256.1931 346.2936  2.00770333290080
MOLNIYA 3-24            
1 15738U 85040A   24197.82876983  .00000061  00000+0 -12867-4 0  9990
2 15738  62.7518 292.8048 6906766 249.8784  27.8494  2.55655510323286
MOLNIYA 3-27            
1 16393U 85117A   24200.00249644  .00000019  00000+0  00000+0 0  9999
2 16393  63.3281 332.6943 7178729 245.7949  27.3033  2.12400999290373
MOLNIYA 3-31            
1 17328U 87008A   24199.54698484 -.00000414  00000+0 -11016-2 0  9998
2 17328  63.2188  24.3965 7390495 253.4892  20.2995  2.00567749271164
MOLNIYA 1-71            
1 18946U 88017A   24199.01358052  .00000011  00000+0  58273-3 0  9990
2 18946  62.9781  11.0211 7463215 258.3078  17.4119  2.00683837266318
MOLNIYA 1-75            
1 19807U 89014A   24198.32686560  .00000247  00000+0  00000+0 0  9998
2 19807  63.8387 207.5449 6614849 261.5327  24.1721  2.00570757259238
MOLNIYA 1-80            
1 21118U 91012A   24197.25595408 -.00000268  00000+0  00000+0 0  9992
2 21118  65.0045 255.9815 6480714 267.2916  22.6787  2.05248345246550
MOLNIYA 3-40            
1 21196U 91022A   24199.38937756  .00001164  00000+0  00000+0 0  9996
2 21196  64.8155 249.8975 6513660 264.4857  23.7275  2.02999064245139
MOLNIYA 1-81            
1 21426U 91043A   24199.19711031  .00000207  00000+0  00000+0 0  9997
2 21426  63.5481 252.5668 6850956 263.0269  21.2222  2.00591595242426
MOLNIYA 3-41            
1 21706U 91065A   24198.85266936  .00001043  00000+0  00000+0 0  9992
2 21706  63.8487  71.4067 7264276 251.0956  22.8820  2.04343059242405
MOLNIYA 3-42            
1 22178U 92067A   24196.83808070  .00000116  00000+0  00000+0 0  9996
2 22178  64.6620 134.7500 6620316 254.9059  27.8618  2.20434815 96774
MOLNIYA 1-86            
1 22671U 93035A   24199.86871406  .00001592  00000+0  12765-2 0  9992
2 22671  63.0181 152.6416 4895712  19.4703 354.0714  5.63405807395160
MOLNIYA 1-87            
1 22949U 93079A   24192.25699505  .00000608  00000+0  00000+0 0  9995
2 22949  64.9171   3.4169 6973304 277.8486  14.5069  2.02843513 90229
MOLNIYA 1-88            
1 23420U 94081A   24198.74383546 -.00000085  00000+0  00000+0 0  9999
2 23420  64.4443  25.5642 5904022 269.3810  26.8593  3.34492345139130
MOLNIYA 3-47            
1 23642U 95042A   24198.84803141 -.00001448  00000+0  00000+0 0  9996
2 23642  64.9824 344.6859 6950329 277.7901  14.7261  2.01958055212379
MOLNIYA 1-90            
1 24960U 97054A   24199.33809767 -.00000127  00000+0 -17491-2 0  9999
2 24960  64.3002 351.7332 6089467 291.2033  16.1423  3.18685984232255
MOLNIYA 1-91            
1 25485U 98054A   24199.26419980 -.00000123  00000+0  00000+0 0  9999
2 25485  64.0545  30.7722 6823039 290.3372  11.9399  2.36440749197028
MOLNIYA 3-50            
1 25847U 99036A   24198.13243874  .00000084  00000+0 -34177-1 0  9994
2 25847  63.4703 230.2771 6992127 282.1392  13.2264  2.00579143183355
